[{"OBJECT_NAME":"STARLINK-34577","OBJECT_ID":"2025-142Z","EPOCH":"2026-03-09T20:22:49.679904","MEAN_MOTION":14.95911073,"ECCENTRICITY":0.0002346,"INCLINATION":70.0008,"RA_OF_ASC_NODE":314.0623,"ARG_OF_PERICENTER":271.1669,"MEAN_ANOMALY":88.922,"EPHEMERIS_TYPE":0,"CLASSIFICATION_TYPE":"U","NORAD_CAT_ID":64719,"ELEMENT_SET_NO":999,"REV_AT_EPOCH":3951,"BSTAR":0.00017350703,"MEAN_MOTION_DOT":1.855e-5,"MEAN_MOTION_DDOT":0},{"OBJECT_NAME":"FALCON 1 R\/B","OBJECT_ID":"2009-037B","EPOCH":"2026-03-08T17:35:48.909408","MEAN_MOTION":14.88730418,"ECCENTRICITY":0.00374904,"INCLINATION":9.0437,"RA_OF_ASC_NODE":137.3099,"ARG_OF_PERICENTER":171.2098,"MEAN_ANOMALY":188.8755,"EPHEMERIS_TYPE":0,"CLASSIFICATION_TYPE":"U","NORAD_CAT_ID":35579,"ELEMENT_SET_NO":999,"REV_AT_EPOCH":90049,"BSTAR":0.00039887201,"MEAN_MOTION_DOT":4.571e-5,"MEAN_MOTION_DDOT":0}]
